*******************************************************************************
Ephemeris / WWW_USER Mon Mar 24 06:44:57 2025 Pasadena, USA      / Horizons    
*******************************************************************************
Target body name: (2018 RB1)                      {source: JPL#5}
Center body name: Earth (399)                     {source: DE441}
Center-site name: Gemini South Obs., Cerro Pachon
*******************************************************************************
Start time      : A.D. 2018-Sep-05 22:38:00.0000 UT      
Stop  time      : A.D. 2018-Sep-06 10:44:00.0000 UT      
Step-size       : 1 minutes
*******************************************************************************
Target pole/equ : undefined
Target radii    : undefined                                                    
Center geodetic : 289.2634, -30.2406227, 2.71233  {E-lon(deg),Lat(deg),Alt(km)}
Center cylindric: 289.2634,5517.21435,-3194.81213 {E-lon(deg),Dxy(km),Dz(km)}
Center pole/equ : ITRF93                          {East-longitude positive}
Center radii    : 6378.137, 6378.137, 6356.752 km {Equator_a, b, pole_c}       
Target primary  : Sun
Vis. interferer : MOON (R_eq= 1737.400) km        {source: DE441}
Rel. light bend : Sun                             {source: DE441}
Rel. lght bnd GM: 1.3271E+11 km^3/s^2                                          
Small-body perts: Yes                             {source: SB441-N16}
Atmos refraction: NO (AIRLESS)
RA format       : HMS
Time format     : CAL 
Calendar mode   : Mixed Julian/Gregorian
RTS-only print  : NO       
EOP file        : eop.250321.p250617                                           
EOP coverage    : DATA-BASED 1962-JAN-20 TO 2025-MAR-21. PREDICTS-> 2025-JUN-16
Units conversion: 1 au= 149597870.700 km, c= 299792.458 km/s, 1 day= 86400.0 s 
Table cut-offs 1: Elevation (-90.0deg=NO ),Airmass (>38.000=NO), Daylight (YES)
Table cut-offs 2: Solar elongation (  0.0,180.0=NO ),Local Hour Angle( 0.0=NO )
Table cut-offs 3: RA/DEC angular rate (     0.0=NO )                           
*******************************************************************************
Initial IAU76/J2000 heliocentric ecliptic osculating elements (au, days, deg.):
  EPOCH=  2458368.5 ! 2018-Sep-07.00 (TDB)         Residual RMS= .299          
   EC= .2816093255492492   QR= .7991213126369837   TP= 2458438.7854507864      
   OM= 166.9631715555783   W=  267.8210074013559   IN= 5.127543488636634       
  Equivalent ICRF heliocentric cartesian coordinates (au, au/d):
   X= 9.883258176612897E-01  Y=-2.654573099408967E-01  Z=-1.095366816313374E-01
  VX= 1.112505236628486E-04 VY= 1.667631342697191E-02 VZ= 5.559084906068471E-03
Asteroid physical parameters (km, seconds, rotational period in hours):        
   GM= n.a.                RAD= n.a.               ROTPER= n.a.                
   H= 27.9                 G= .150                 B-V= n.a.                   
                           ALBEDO= n.a.            STYP= n.a.                  
*******************************************************************************
 Date__(UT)__HR:MN     R.A._________(ICRF)_________DEC
******************************************************
$$SOE
 2018-Sep-06 04:47     21 59 39.190809 +02 43 16.76790
 2018-Sep-06 04:48     21 59 38.803418 +02 43 12.47724
 2018-Sep-06 04:49     21 59 38.416040 +02 43 08.18526
 2018-Sep-06 04:50     21 59 38.028678 +02 43 03.89196
 2018-Sep-06 04:51     21 59 37.641332 +02 42 59.59735
 2018-Sep-06 04:52     21 59 37.254005 +02 42 55.30141
 2018-Sep-06 04:53     21 59 36.866698 +02 42 51.00416
 2018-Sep-06 04:54     21 59 36.479412 +02 42 46.70559
 2018-Sep-06 04:55     21 59 36.092150 +02 42 42.40570
 2018-Sep-06 04:56     21 59 35.704912 +02 42 38.10449
 2018-Sep-06 04:57     21 59 35.317701 +02 42 33.80196
 2018-Sep-06 04:58     21 59 34.930518 +02 42 29.49812
 2018-Sep-06 04:59     21 59 34.543364 +02 42 25.19296
 2018-Sep-06 05:00     21 59 34.156241 +02 42 20.88648
 2018-Sep-06 05:01     21 59 33.769152 +02 42 16.57869
 2018-Sep-06 05:02     21 59 33.382096 +02 42 12.26958
 2018-Sep-06 05:03     21 59 32.995076 +02 42 07.95915
 2018-Sep-06 05:04     21 59 32.608094 +02 42 03.64741
 2018-Sep-06 05:05     21 59 32.221151 +02 41 59.33435
 2018-Sep-06 05:06     21 59 31.834248 +02 41 55.01997
 2018-Sep-06 05:07     21 59 31.447388 +02 41 50.70428
 2018-Sep-06 05:08     21 59 31.060571 +02 41 46.38728
 2018-Sep-06 05:09     21 59 30.673800 +02 41 42.06896
 2018-Sep-06 05:10     21 59 30.287076 +02 41 37.74933
 2018-Sep-06 05:11     21 59 29.900400 +02 41 33.42838
 2018-Sep-06 05:12     21 59 29.513774 +02 41 29.10612
 2018-Sep-06 05:13     21 59 29.127199 +02 41 24.78255
 2018-Sep-06 05:14     21 59 28.740678 +02 41 20.45766
 2018-Sep-06 05:15     21 59 28.354212 +02 41 16.13147
 2018-Sep-06 05:16     21 59 27.967802 +02 41 11.80395
 2018-Sep-06 05:17     21 59 27.581449 +02 41 07.47513
 2018-Sep-06 05:18     21 59 27.195156 +02 41 03.14500
 2018-Sep-06 05:19     21 59 26.808924 +02 40 58.81355
 2018-Sep-06 05:20     21 59 26.422755 +02 40 54.48079
 2018-Sep-06 05:21     21 59 26.036649 +02 40 50.14672
 2018-Sep-06 05:22     21 59 25.650609 +02 40 45.81135
 2018-Sep-06 05:23     21 59 25.264636 +02 40 41.47466
 2018-Sep-06 05:24     21 59 24.878732 +02 40 37.13666
 2018-Sep-06 05:25     21 59 24.492898 +02 40 32.79735
 2018-Sep-06 05:26     21 59 24.107135 +02 40 28.45674
 2018-Sep-06 05:27     21 59 23.721446 +02 40 24.11481
 2018-Sep-06 05:28     21 59 23.335832 +02 40 19.77158
 2018-Sep-06 05:29     21 59 22.950293 +02 40 15.42704
 2018-Sep-06 05:30     21 59 22.564833 +02 40 11.08119
 2018-Sep-06 05:31     21 59 22.179452 +02 40 06.73404
 2018-Sep-06 05:32     21 59 21.794152 +02 40 02.38558
 2018-Sep-06 05:33     21 59 21.408934 +02 39 58.03581
 2018-Sep-06 05:34     21 59 21.023800 +02 39 53.68474
 2018-Sep-06 05:35     21 59 20.638751 +02 39 49.33236
 2018-Sep-06 05:36     21 59 20.253790 +02 39 44.97867
 2018-Sep-06 05:37     21 59 19.868916 +02 39 40.62369
 2018-Sep-06 05:38     21 59 19.484133 +02 39 36.26739
 2018-Sep-06 05:39     21 59 19.099441 +02 39 31.90980
 2018-Sep-06 05:40     21 59 18.714842 +02 39 27.55090
 2018-Sep-06 05:41     21 59 18.330337 +02 39 23.19070
 2018-Sep-06 05:42     21 59 17.945928 +02 39 18.82919
 2018-Sep-06 05:43     21 59 17.561617 +02 39 14.46639
 2018-Sep-06 05:44     21 59 17.177404 +02 39 10.10228
 2018-Sep-06 05:45     21 59 16.793292 +02 39 05.73687
 2018-Sep-06 05:46     21 59 16.409281 +02 39 01.37016
 2018-Sep-06 05:47     21 59 16.025374 +02 38 57.00215
 2018-Sep-06 05:48     21 59 15.641571 +02 38 52.63284
 2018-Sep-06 05:49     21 59 15.257875 +02 38 48.26223
 2018-Sep-06 05:50     21 59 14.874286 +02 38 43.89032
 2018-Sep-06 05:51     21 59 14.490807 +02 38 39.51712
 2018-Sep-06 05:52     21 59 14.107438 +02 38 35.14261
 2018-Sep-06 05:53     21 59 13.724181 +02 38 30.76681
 2018-Sep-06 05:54     21 59 13.341038 +02 38 26.38972
 2018-Sep-06 05:55     21 59 12.958010 +02 38 22.01132
 2018-Sep-06 05:56     21 59 12.575098 +02 38 17.63163
 2018-Sep-06 05:57     21 59 12.192303 +02 38 13.25064
 2018-Sep-06 05:58     21 59 11.809629 +02 38 08.86836
 2018-Sep-06 05:59     21 59 11.427074 +02 38 04.48479
 2018-Sep-06 06:00     21 59 11.044642 +02 38 00.09992
 2018-Sep-06 06:01     21 59 10.662334 +02 37 55.71376
 2018-Sep-06 06:02     21 59 10.280151 +02 37 51.32630
 2018-Sep-06 06:03     21 59 09.898094 +02 37 46.93755
 2018-Sep-06 06:04     21 59 09.516164 +02 37 42.54751
 2018-Sep-06 06:05     21 59 09.134365 +02 37 38.15618
 2018-Sep-06 06:06     21 59 08.752695 +02 37 33.76356
 2018-Sep-06 06:07     21 59 08.371158 +02 37 29.36965
 2018-Sep-06 06:08     21 59 07.989755 +02 37 24.97445
 2018-Sep-06 06:09     21 59 07.608486 +02 37 20.57795
 2018-Sep-06 06:10     21 59 07.227353 +02 37 16.18017
 2018-Sep-06 06:11     21 59 06.846358 +02 37 11.78111
 2018-Sep-06 06:12     21 59 06.465503 +02 37 07.38075
 2018-Sep-06 06:13     21 59 06.084787 +02 37 02.97911
 2018-Sep-06 06:14     21 59 05.704214 +02 36 58.57618
 2018-Sep-06 06:15     21 59 05.323783 +02 36 54.17196
 2018-Sep-06 06:16     21 59 04.943497 +02 36 49.76646
 2018-Sep-06 06:17     21 59 04.563358 +02 36 45.35967
 2018-Sep-06 06:18     21 59 04.183365 +02 36 40.95160
 2018-Sep-06 06:19     21 59 03.803521 +02 36 36.54225
 2018-Sep-06 06:20     21 59 03.423827 +02 36 32.13161
 2018-Sep-06 06:21     21 59 03.044285 +02 36 27.71969
 2018-Sep-06 06:22     21 59 02.664895 +02 36 23.30649
 2018-Sep-06 06:23     21 59 02.285659 +02 36 18.89201
 2018-Sep-06 06:24     21 59 01.906579 +02 36 14.47625
 2018-Sep-06 06:25     21 59 01.527655 +02 36 10.05920
 2018-Sep-06 06:26     21 59 01.148889 +02 36 05.64088
 2018-Sep-06 06:27     21 59 00.770283 +02 36 01.22128
 2018-Sep-06 06:28     21 59 00.391838 +02 35 56.80039
 2018-Sep-06 06:29     21 59 00.013554 +02 35 52.37824
 2018-Sep-06 06:30     21 58 59.635434 +02 35 47.95480
 2018-Sep-06 06:31     21 58 59.257479 +02 35 43.53009
 2018-Sep-06 06:32     21 58 58.879689 +02 35 39.10410
 2018-Sep-06 06:33     21 58 58.502067 +02 35 34.67683
 2018-Sep-06 06:34     21 58 58.124614 +02 35 30.24829
 2018-Sep-06 06:35     21 58 57.747330 +02 35 25.81848
 2018-Sep-06 06:36     21 58 57.370217 +02 35 21.38739
 2018-Sep-06 06:37     21 58 56.993277 +02 35 16.95503
 2018-Sep-06 06:38     21 58 56.616511 +02 35 12.52140
 2018-Sep-06 06:39     21 58 56.239919 +02 35 08.08649
 2018-Sep-06 06:40     21 58 55.863504 +02 35 03.65032
 2018-Sep-06 06:41     21 58 55.487266 +02 34 59.21287
 2018-Sep-06 06:42     21 58 55.111207 +02 34 54.77416
 2018-Sep-06 06:43     21 58 54.735328 +02 34 50.33417
 2018-Sep-06 06:44     21 58 54.359631 +02 34 45.89292
 2018-Sep-06 06:45     21 58 53.984116 +02 34 41.45040
 2018-Sep-06 06:46     21 58 53.608784 +02 34 37.00661
 2018-Sep-06 06:47     21 58 53.233638 +02 34 32.56156
 2018-Sep-06 06:48     21 58 52.858678 +02 34 28.11523
 2018-Sep-06 06:49     21 58 52.483905 +02 34 23.66765
